CCSDS_OMM_VERS = 2.0
CREATION_DATE  = 
ORIGINATOR     = 

OBJECT_NAME    = UNKNOWN
OBJECT_ID      = 
CENTER_NAME    = EARTH
REF_FRAME      = TEME
TIME_SYSTEM    = UTC
MEAN_ELEMENT_THEORY = SGP/SGP4

EPOCH          = 2026-03-05T11:08:08.016288
MEAN_MOTION    = 14.11453652
ECCENTRICITY   = .00132
INCLINATION    = 100.0898
RA_OF_ASC_NODE = 319.0489
ARG_OF_PERICENTER = 114.8770
MEAN_ANOMALY   = 245.3770

EPHEMERIS_TYPE = 0
CLASSIFICATION_TYPE = U
NORAD_CAT_ID   = 87054
ELEMENT_SET_NO = 999
REV_AT_EPOCH   = 62799
BSTAR          = .13022E-2
MEAN_MOTION_DOT = .2308E-4
MEAN_MOTION_DDOT = 0

CCSDS_OMM_VERS = 2.0
CREATION_DATE  = 
ORIGINATOR     = 

OBJECT_NAME    = UNKNOWN
OBJECT_ID      = 
CENTER_NAME    = EARTH
REF_FRAME      = TEME
TIME_SYSTEM    = UTC
MEAN_ELEMENT_THEORY = SGP/SGP4

EPOCH          = 2026-03-06T06:27:59.584032
MEAN_MOTION    = 13.86612125
ECCENTRICITY   = .047224
INCLINATION    = 61.2237
RA_OF_ASC_NODE = 23.4027
ARG_OF_PERICENTER = 279.6748
MEAN_ANOMALY   = 75.1256

EPHEMERIS_TYPE = 0
CLASSIFICATION_TYPE = U
NORAD_CAT_ID   = 87071
ELEMENT_SET_NO = 999
REV_AT_EPOCH   = 61406
BSTAR          = .19758E-2
MEAN_MOTION_DOT = .5465E-4
MEAN_MOTION_DDOT = 0

CCSDS_OMM_VERS = 2.0
CREATION_DATE  = 
ORIGINATOR     = 

OBJECT_NAME    = UNKNOWN
OBJECT_ID      = 
CENTER_NAME    = EARTH
REF_FRAME      = TEME
TIME_SYSTEM    = UTC
MEAN_ELEMENT_THEORY = SGP/SGP4

EPOCH          = 2026-03-06T05:44:50.249472
MEAN_MOTION    = 12.42856188
ECCENTRICITY   = .0031013
INCLINATION    = 102.2547
RA_OF_ASC_NODE = 162.1930
ARG_OF_PERICENTER = 280.9612
MEAN_ANOMALY   = 78.7964

EPHEMERIS_TYPE = 0
CLASSIFICATION_TYPE = U
NORAD_CAT_ID   = 87129
ELEMENT_SET_NO = 999
REV_AT_EPOCH   = 55704
BSTAR          = .19652E-2
MEAN_MOTION_DOT = .226E-5
MEAN_MOTION_DDOT = 0

CCSDS_OMM_VERS = 2.0
CREATION_DATE  = 
ORIGINATOR     = 

OBJECT_NAME    = UNKNOWN
OBJECT_ID      = 
CENTER_NAME    = EARTH
REF_FRAME      = TEME
TIME_SYSTEM    = UTC
MEAN_ELEMENT_THEORY = SGP/SGP4

EPOCH          = 2026-03-03T18:37:44.791104
MEAN_MOTION    = 13.66299392
ECCENTRICITY   = .0105038
INCLINATION    = 90.3452
RA_OF_ASC_NODE = 72.3182
ARG_OF_PERICENTER = 18.1261
MEAN_ANOMALY   = 342.3599

EPHEMERIS_TYPE = 0
CLASSIFICATION_TYPE = U
NORAD_CAT_ID   = 87159
ELEMENT_SET_NO = 999
REV_AT_EPOCH   = 56775
BSTAR          = .18699E-2
MEAN_MOTION_DOT = .1613E-4
MEAN_MOTION_DDOT = 0

CCSDS_OMM_VERS = 2.0
CREATION_DATE  = 
ORIGINATOR     = 

OBJECT_NAME    = UNKNOWN
OBJECT_ID      = 
CENTER_NAME    = EARTH
REF_FRAME      = TEME
TIME_SYSTEM    = UTC
MEAN_ELEMENT_THEORY = SGP/SGP4

EPOCH          = 2026-03-06T06:53:53.361024
MEAN_MOTION    = 13.64438361
ECCENTRICITY   = .0645774
INCLINATION    = 65.6018
RA_OF_ASC_NODE = 30.1518
ARG_OF_PERICENTER = 27.2182
MEAN_ANOMALY   = 336.1216

EPHEMERIS_TYPE = 0
CLASSIFICATION_TYPE = U
NORAD_CAT_ID   = 87163
ELEMENT_SET_NO = 999
REV_AT_EPOCH   = 58891
BSTAR          = .22736E-2
MEAN_MOTION_DOT = .7773E-4
MEAN_MOTION_DDOT = 0

CCSDS_OMM_VERS = 2.0
CREATION_DATE  = 
ORIGINATOR     = 

OBJECT_NAME    = UNKNOWN
OBJECT_ID      = 
CENTER_NAME    = EARTH
REF_FRAME      = TEME
TIME_SYSTEM    = UTC
MEAN_ELEMENT_THEORY = SGP/SGP4

EPOCH          = 2026-03-06T11:11:25.852416
MEAN_MOTION    = 14.59260299
ECCENTRICITY   = .0105748
INCLINATION    = 65.2013
RA_OF_ASC_NODE = 84.3638
ARG_OF_PERICENTER = 15.5045
MEAN_ANOMALY   = 344.9251

EPHEMERIS_TYPE = 0
CLASSIFICATION_TYPE = U
NORAD_CAT_ID   = 87164
ELEMENT_SET_NO = 999
REV_AT_EPOCH   = 64798
BSTAR          = .11901E-2
MEAN_MOTION_DOT = .5971E-4
MEAN_MOTION_DDOT = 0

CCSDS_OMM_VERS = 2.0
CREATION_DATE  = 
ORIGINATOR     = 

OBJECT_NAME    = UNKNOWN
OBJECT_ID      = 
CENTER_NAME    = EARTH
REF_FRAME      = TEME
TIME_SYSTEM    = UTC
MEAN_ELEMENT_THEORY = SGP/SGP4

EPOCH          = 2026-03-06T01:42:08.883360
MEAN_MOTION    = 14.29787086
ECCENTRICITY   = .0046467
INCLINATION    = 98.5323
RA_OF_ASC_NODE = 289.2253
ARG_OF_PERICENTER = 78.8224
MEAN_ANOMALY   = 281.8177

EPHEMERIS_TYPE = 0
CLASSIFICATION_TYPE = U
NORAD_CAT_ID   = 87204
ELEMENT_SET_NO = 999
REV_AT_EPOCH   = 63734
BSTAR          = .90379E-3
MEAN_MOTION_DOT = .2307E-4
MEAN_MOTION_DDOT = 0

CCSDS_OMM_VERS = 2.0
CREATION_DATE  = 
ORIGINATOR     = 

OBJECT_NAME    = UNKNOWN
OBJECT_ID      = 
CENTER_NAME    = EARTH
REF_FRAME      = TEME
TIME_SYSTEM    = UTC
MEAN_ELEMENT_THEORY = SGP/SGP4

EPOCH          = 2026-02-24T19:39:16.252704
MEAN_MOTION    = 14.47142657
ECCENTRICITY   = .005159
INCLINATION    = 99.0886
RA_OF_ASC_NODE = 65.9782
ARG_OF_PERICENTER = 299.6495
MEAN_ANOMALY   = 186.2543

EPHEMERIS_TYPE = 0
CLASSIFICATION_TYPE = U
NORAD_CAT_ID   = 87211
ELEMENT_SET_NO = 999
REV_AT_EPOCH   = 71848
BSTAR          = .93562E-3
MEAN_MOTION_DOT = .3419E-4
MEAN_MOTION_DDOT = 0

CCSDS_OMM_VERS = 2.0
CREATION_DATE  = 
ORIGINATOR     = 

OBJECT_NAME    = UNKNOWN
OBJECT_ID      = 
CENTER_NAME    = EARTH
REF_FRAME      = TEME
TIME_SYSTEM    = UTC
MEAN_ELEMENT_THEORY = SGP/SGP4

EPOCH          = 2026-03-02T11:30:42.301728
MEAN_MOTION    = 13.84252622
ECCENTRICITY   = .0068963
INCLINATION    = 100.3330
RA_OF_ASC_NODE = 72.9871
ARG_OF_PERICENTER = 50.2422
MEAN_ANOMALY   = 310.4777

EPHEMERIS_TYPE = 0
CLASSIFICATION_TYPE = U
NORAD_CAT_ID   = 87214
ELEMENT_SET_NO = 999
REV_AT_EPOCH   = 61127
BSTAR          = .16007E-2
MEAN_MOTION_DOT = .1769E-4
MEAN_MOTION_DDOT = 0

CCSDS_OMM_VERS = 2.0
CREATION_DATE  = 
ORIGINATOR     = 

OBJECT_NAME    = UNKNOWN
OBJECT_ID      = 
CENTER_NAME    = EARTH
REF_FRAME      = TEME
TIME_SYSTEM    = UTC
MEAN_ELEMENT_THEORY = SGP/SGP4

EPOCH          = 2026-03-06T03:16:20.115552
MEAN_MOTION    = 13.91838350
ECCENTRICITY   = .0103769
INCLINATION    = 99.2424
RA_OF_ASC_NODE = 125.3960
ARG_OF_PERICENTER = 59.3614
MEAN_ANOMALY   = 330.8365

EPHEMERIS_TYPE = 0
CLASSIFICATION_TYPE = U
NORAD_CAT_ID   = 87237
ELEMENT_SET_NO = 999
REV_AT_EPOCH   = 62336
BSTAR          = .24537E-3
MEAN_MOTION_DOT = .282E-5
MEAN_MOTION_DDOT = 0

CCSDS_OMM_VERS = 2.0
CREATION_DATE  = 
ORIGINATOR     = 

OBJECT_NAME    = UNKNOWN
OBJECT_ID      = 
CENTER_NAME    = EARTH
REF_FRAME      = TEME
TIME_SYSTEM    = UTC
MEAN_ELEMENT_THEORY = SGP/SGP4

EPOCH          = 2026-03-06T03:28:21.567648
MEAN_MOTION    = 14.53871857
ECCENTRICITY   = .0020054
INCLINATION    = 82.8745
RA_OF_ASC_NODE = 11.9224
ARG_OF_PERICENTER = 124.9388
MEAN_ANOMALY   = 235.3699

EPHEMERIS_TYPE = 0
CLASSIFICATION_TYPE = U
NORAD_CAT_ID   = 87239
ELEMENT_SET_NO = 999
REV_AT_EPOCH   = 63998
BSTAR          = .26361E-2
MEAN_MOTION_DOT = .11135E-3
MEAN_MOTION_DDOT = 0

CCSDS_OMM_VERS = 2.0
CREATION_DATE  = 
ORIGINATOR     = 

OBJECT_NAME    = UNKNOWN
OBJECT_ID      = 
CENTER_NAME    = EARTH
REF_FRAME      = TEME
TIME_SYSTEM    = UTC
MEAN_ELEMENT_THEORY = SGP/SGP4

EPOCH          = 2026-03-06T07:45:06.272928
MEAN_MOTION    = 14.16705723
ECCENTRICITY   = .0425473
INCLINATION    = 65.6410
RA_OF_ASC_NODE = 184.1228
ARG_OF_PERICENTER = 79.2560
MEAN_ANOMALY   = 315.4370

EPHEMERIS_TYPE = 0
CLASSIFICATION_TYPE = U
NORAD_CAT_ID   = 87245
ELEMENT_SET_NO = 999
REV_AT_EPOCH   = 62604
BSTAR          = .93991E-3
MEAN_MOTION_DOT = .4502E-4
MEAN_MOTION_DDOT = 0

