UNKNOWN                 
1 87054U          26064.46398167  .00002308  00000+0  13022-2 0  9998
2 87054 100.0898 319.0489 0013200 114.8770 245.3770 14.11453652627993
UNKNOWN                 
1 87071U          26065.26943963  .00005465  00000+0  19758-2 0  9995
2 87071  61.2237  23.4027 0472240 279.6748  75.1256 13.86612125614064
UNKNOWN                 
1 87129U          26065.23947048  .00000226  00000+0  19652-2 0  9997
2 87129 102.2547 162.1930 0031013 280.9612  78.7964 12.42856188557045
UNKNOWN                 
1 87159U          26062.77621286  .00001613  00000+0  18699-2 0  9990
2 87159  90.3452  72.3182 0105038  18.1261 342.3599 13.66299392567759
UNKNOWN                 
1 87163U          26065.28742316  .00007773  00000+0  22736-2 0  9992
2 87163  65.6018  30.1518 0645774  27.2182 336.1216 13.64438361588918
UNKNOWN                 
1 87164U          26065.46627144  .00005971  00000+0  11901-2 0  9994
2 87164  65.2013  84.3638 0105748  15.5045 344.9251 14.59260299647981
UNKNOWN                 
1 87204U          26065.07093615  .00002307  00000+0  90379-3 0  9993
2 87204  98.5323 289.2253 0046467  78.8224 281.8177 14.29787086637341
UNKNOWN                 
1 87211U          26055.81893811  .00003419  00000+0  93562-3 0  9990
2 87211  99.0886  65.9782 0051590 299.6495 186.2543 14.47142657718480
UNKNOWN                 
1 87214U          26061.47965627  .00001769  00000+0  16007-2 0  9991
2 87214 100.3330  72.9871 0068963  50.2422 310.4777 13.84252622611276
UNKNOWN                 
1 87237U          26065.13634393  .00000282  00000+0  24537-3 0  9993
2 87237  99.2424 125.3960 0103769  59.3614 330.8365 13.91838350623368
UNKNOWN                 
1 87239U          26065.14469407  .00011135  00000+0  26361-2 0  9993
2 87239  82.8745  11.9224 0020054 124.9388 235.3699 14.53871857639981
UNKNOWN                 
1 87245U          26065.32298927  .00004502  00000+0  93991-3 0  9991
2 87245  65.6410 184.1228 0425473  79.2560 315.4370 14.16705723626047
